{"type": "FeatureCollection", "features": [ {"type": "Feature", "properties": {"norad_id": 65304, "name": "DRAGON CRS-33", "group": "stations", "lat": 26.460100698955696, "lon": 127.37227324037396, "alt_km": 415.47229669926855, "timestamp": "2025-12-20T11:30:27.135506+00:00", "meta": {"OBJECT_NAME": "DRAGON CRS-33", "OBJECT_ID": "2025-186A", "EPOCH": "2025-12-19T18:20:02.855616", "MEAN_MOTION": 15.49672026, "ECCENTRICITY": 0.00031868, "INCLINATION": 51.6318, "RA_OF_ASC_NODE": 107.6945, "ARG_OF_PERICENTER": 273.0117, "MEAN_ANOMALY": 87.0507, "EPHEMERIS_TYPE": 0, "CLASSIFICATION_TYPE": "U", "NORAD_CAT_ID": 65304, "ELEMENT_SET_NO": 999, "REV_AT_EPOCH": 11, "BSTAR": 0.0001262585, "MEAN_MOTION_DOT": 6.675e-05, "MEAN_MOTION_DDOT": 0}, "tle": {"line1": "1 65304U 25186A   25353.76392194  .00006675  00000+0  12626-3 0  9992", "line2": "2 65304  51.6318 107.6945 0003186 273.0117  87.0507 15.49672026   116"}}, "geometry": {"type": "Point", "coordinates": [127.37227324037396, 26.460100698955696]}}, {"type": "Feature", "properties": {"norad_id": 65586, "name": "PROGRESS-MS 32", "group": "stations", "lat": 26.460101211283366, "lon": 127.37227379083515, "alt_km": 415.4722966397758, "timestamp": "2025-12-20T11:30:27.135517+00:00", "meta": {"OBJECT_NAME": "PROGRESS-MS 32", "OBJECT_ID": "2025-204A", "EPOCH": "2025-12-19T18:20:02.855616", "MEAN_MOTION": 15.49672026, "ECCENTRICITY": 0.00031868, "INCLINATION": 51.6318, "RA_OF_ASC_NODE": 107.6945, "ARG_OF_PERICENTER": 273.0117, "MEAN_ANOMALY": 87.0507, "EPHEMERIS_TYPE": 0, "CLASSIFICATION_TYPE": "U", "NORAD_CAT_ID": 65586, "ELEMENT_SET_NO": 999, "REV_AT_EPOCH": 27, "BSTAR": 0.0001262585, "MEAN_MOTION_DOT": 6.675e-05, "MEAN_MOTION_DDOT": 0}, "tle": {"line1": "1 65586U 25204A   25353.76392194  .00006675  00000+0  12626-3 0  9995", "line2": "2 65586  51.6318 107.6945 0003186 273.0117  87.0507 15.49672026   275"}}, "geometry": {"type": "Point", "coordinates": [127.37227379083515, 26.460101211283366]}}, {"type": "Feature", "properties": {"norad_id": 65616, "name": "CYGNUS NG-23", "group": "stations", "lat": 26.46010167703459, "lon": 127.37227429125313, "alt_km": 415.4722965856945, "timestamp": "2025-12-20T11:30:27.135527+00:00", "meta": {"OBJECT_NAME": "CYGNUS NG-23", "OBJECT_ID": "2025-208A", "EPOCH": "2025-12-19T18:20:02.855616", "MEAN_MOTION": 15.49672026, "ECCENTRICITY": 0.00031868, "INCLINATION": 51.6318, "RA_OF_ASC_NODE": 107.6945, "ARG_OF_PERICENTER": 273.0117, "MEAN_ANOMALY": 87.0507, "EPHEMERIS_TYPE": 0, "CLASSIFICATION_TYPE": "U", "NORAD_CAT_ID": 65616, "ELEMENT_SET_NO": 999, "REV_AT_EPOCH": 22, "BSTAR": 0.0001262585, "MEAN_MOTION_DOT": 6.675e-05, "MEAN_MOTION_DDOT": 0}, "tle": {"line1": "1 65616U 25208A   25353.76392194  .00006675  00000+0  12626-3 0  9993", "line2": "2 65616  51.6318 107.6945 0003186 273.0117  87.0507 15.49672026   224"}}, "geometry": {"type": "Point", "coordinates": [127.37227429125313, 26.46010167703459]}}, {"type": "Feature", "properties": {"norad_id": 65729, "name": "DRAGONFLY", "group": "stations", "lat": -35.9562292439507, "lon": 60.965276564025494, "alt_km": 345.4912481025067, "timestamp": "2025-12-20T11:30:27.135540+00:00", "meta": {"OBJECT_NAME": "DRAGONFLY", "OBJECT_ID": "1998-067XH", "EPOCH": "2025-12-19T14:23:03.835680", "MEAN_MOTION": 15.741828, "ECCENTRICITY": 0.000728, "INCLINATION": 51.6251, "RA_OF_ASC_NODE": 100.5779, "ARG_OF_PERICENTER": 320.5398, "MEAN_ANOMALY": 39.507, "EPHEMERIS_TYPE": 0, "CLASSIFICATION_TYPE": "U", "NORAD_CAT_ID": 65729, "ELEMENT_SET_NO": 999, "REV_AT_EPOCH": 1424, "BSTAR": 0.00096899, "MEAN_MOTION_DOT": 0.00144123, "MEAN_MOTION_DDOT": 0}, "tle": {"line1": "1 65729U 98067XH  25353.59934995  .00144123  00000+0  96899-3 0  9998", "line2": "2 65729  51.6251 100.5779 0007280 320.5398  39.5070 15.74182800 14248"}}, "geometry": {"type": "Point", "coordinates": [60.965276564025494, -35.9562292439507]}}, {"type": "Feature", "properties": {"norad_id": 65731, "name": "1998-067XK", "group": "stations", "lat": 24.815418460843212, "lon": -103.57058456279896, "alt_km": 366.7823050543757, "timestamp": "2025-12-20T11:30:27.135551+00:00", "meta": {"OBJECT_NAME": "1998-067XK", "OBJECT_ID": "1998-067XK", "EPOCH": "2025-12-20T00:10:02.025696", "MEAN_MOTION": 15.67078773, "ECCENTRICITY": 0.0004764, "INCLINATION": 51.6294, "RA_OF_ASC_NODE": 100.3244, "ARG_OF_PERICENTER": 292.7833, "MEAN_ANOMALY": 67.2659, "EPHEMERIS_TYPE": 0, "CLASSIFICATION_TYPE": "U", "NORAD_CAT_ID": 65731, "ELEMENT_SET_NO": 999, "REV_AT_EPOCH": 1428, "BSTAR": 0.00070175, "MEAN_MOTION_DOT": 0.00076617, "MEAN_MOTION_DDOT": 0}, "tle": {"line1": "1 65731U 98067XK  25354.00696789  .00076617  00000+0  70175-3 0  9995", "line2": "2 65731  51.6294 100.3244 0004764 292.7833  67.2659 15.67078773 14281"}}, "geometry": {"type": "Point", "coordinates": [-103.57058456279896, 24.815418460843212]}}, {"type": "Feature", "properties": {"norad_id": 65732, "name": "RSP-03", "group": "stations", "lat": -20.99828398784049, "lon": -65.26210533558472, "alt_km": 360.53762441633444, "timestamp": "2025-12-20T11:30:27.135562+00:00", "meta": {"OBJECT_NAME": "RSP-03", "OBJECT_ID": "1998-067XL", "EPOCH": "2025-12-19T10:11:34.022112", "MEAN_MOTION": 15.70283101, "ECCENTRICITY": 0.0005658, "INCLINATION": 51.6265, "RA_OF_ASC_NODE": 102.4221, "ARG_OF_PERICENTER": 294.5755, "MEAN_ANOMALY": 65.4652, "EPHEMERIS_TYPE": 0, "CLASSIFICATION_TYPE": "U", "NORAD_CAT_ID": 65732, "ELEMENT_SET_NO": 999, "REV_AT_EPOCH": 1421, "BSTAR": 0.00084699, "MEAN_MOTION_DOT": 0.00106087, "MEAN_MOTION_DDOT": 0}, "tle": {"line1": "1 65732U 98067XL  25353.42469933  .00106087  00000+0  84699-3 0  9991", "line2": "2 65732  51.6265 102.4221 0005658 294.5755  65.4652 15.70283101 14217"}}, "geometry": {"type": "Point", "coordinates": [-65.26210533558472, -20.99828398784049]}}, {"type": "Feature", "properties": {"norad_id": 65733, "name": "GHS-01", "group": "stations", "lat": -31.928292186924043, "lon": 65.70839337874058, "alt_km": 334.1312406273928, "timestamp": "2025-12-20T11:30:27.135573+00:00", "meta": {"OBJECT_NAME": "GHS-01", "OBJECT_ID": "1998-067XM", "EPOCH": "2025-12-19T17:26:50.755776", "MEAN_MOTION": 15.77819432, "ECCENTRICITY": 0.00083434, "INCLINATION": 51.6273, "RA_OF_ASC_NODE": 99.1864, "ARG_OF_PERICENTER": 325.0318, "MEAN_ANOMALY": 35.0134, "EPHEMERIS_TYPE": 0, "CLASSIFICATION_TYPE": "U", "NORAD_CAT_ID": 65733, "ELEMENT_SET_NO": 999, "REV_AT_EPOCH": 1428, "BSTAR": 0.0010728211, "MEAN_MOTION_DOT": 0.00188446, "MEAN_MOTION_DDOT": 0}, "tle": {"line1": "1 65733U 98067XM  25353.72697634  .00188446  00000+0  10728-2 0  9996", "line2": "2 65733  51.6273  99.1864 0008343 325.0318  35.0134 15.77819432 14285"}}, "geometry": {"type": "Point", "coordinates": [65.70839337874058, -31.928292186924043]}}, {"type": "Feature", "properties": {"norad_id": 65941, "name": "YOTSUBA-KULOVER", "group": "stations", "lat": 51.51414372131711, "lon": -173.67214551550484, "alt_km": 379.9440358054544, "timestamp": "2025-12-20T11:30:27.135585+00:00", "meta": {"OBJECT_NAME": "YOTSUBA-KULOVER", "OBJECT_ID": "1998-067XN", "EPOCH": "2025-12-19T10:32:35.848320", "MEAN_MOTION": 15.60329664, "ECCENTRICITY": 0.00017537, "INCLINATION": 51.6289, "RA_OF_ASC_NODE": 106.2819, "ARG_OF_PERICENTER": 320.2615, "MEAN_ANOMALY": 39.8249, "EPHEMERIS_TYPE": 0, "CLASSIFICATION_TYPE": "U", "NORAD_CAT_ID": 65941, "ELEMENT_SET_NO": 999, "REV_AT_EPOCH": 1090, "BSTAR": 0.0006131661, "MEAN_MOTION_DOT": 0.00050991, "MEAN_MOTION_DDOT": 0}, "tle": {"line1": "1 65941U 98067XN  25353.43930380  .00050991  00000+0  61317-3 0  9997", "line2": "2 65941  51.6289 106.2819 0001753 320.2615  39.8249 15.60329664 10907"}}, "geometry": {"type": "Point", "coordinates": [-173.67214551550484, 51.51414372131711]}}, {"type": "Feature", "properties": {"norad_id": 65942, "name": "BOTAN", "group": "stations", "lat": 16.05813162872584, "lon": -93.04079571173578, "alt_km": 374.84384191286426, "timestamp": "2025-12-20T11:30:27.135595+00:00", "meta": {"OBJECT_NAME": "BOTAN", "OBJECT_ID": "1998-067XP", "EPOCH": "2025-12-19T08:45:55.508256", "MEAN_MOTION": 15.64228558, "ECCENTRICITY": 0.00028928, "INCLINATION": 51.6281, "RA_OF_ASC_NODE": 105.787, "ARG_OF_PERICENTER": 295.6773, "MEAN_ANOMALY": 64.3923, "EPHEMERIS_TYPE": 0, "CLASSIFICATION_TYPE": "U", "NORAD_CAT_ID": 65942, "ELEMENT_SET_NO": 999, "REV_AT_EPOCH": 1090, "BSTAR": 0.00085844533, "MEAN_MOTION_DOT": 0.00083736, "MEAN_MOTION_DDOT": 0}, "tle": {"line1": "1 65942U 98067XP  25353.36522579  .00083736  00000+0  85845-3 0  9992", "line2": "2 65942  51.6281 105.7870 0002892 295.6773  64.3923 15.64228558 10902"}}, "geometry": {"type": "Point", "coordinates": [-93.04079571173578, 16.05813162872584]}}, {"type": "Feature", "properties": {"norad_id": 65943, "name": "E-KAGAKU-1", "group": "stations", "lat": 51.485302867076264, "lon": -174.3666237362072, "alt_km": 380.01833786341103, "timestamp": "2025-12-20T11:30:27.135606+00:00", "meta": {"OBJECT_NAME": "E-KAGAKU-1", "OBJECT_ID": "1998-067XQ", "EPOCH": "2025-12-18T08:24:49.666176", "MEAN_MOTION": 15.60193795, "ECCENTRICITY": 0.00013451, "INCLINATION": 51.6302, "RA_OF_ASC_NODE": 111.7666, "ARG_OF_PERICENTER": 249.8249, "MEAN_ANOMALY": 110.26, "EPHEMERIS_TYPE": 0, "CLASSIFICATION_TYPE": "U", "NORAD_CAT_ID": 65943, "ELEMENT_SET_NO": 999, "REV_AT_EPOCH": 1073, "BSTAR": 0.00084619625, "MEAN_MOTION_DOT": 0.00070368, "MEAN_MOTION_DDOT": 0}, "tle": {"line1": "1 65943U 98067XQ  25352.35057484  .00070368  00000+0  84620-3 0  9996", "line2": "2 65943  51.6302 111.7666 0001345 249.8249 110.2600 15.60193795 10732"}}, "geometry": {"type": "Point", "coordinates": [-174.3666237362072, 51.485302867076264]}}]}